start=new Date('2022-01-27T00:00:00.000Z').valueOf();
sats=[{"LAUNCH_DATE":"2021-05-15","TIME_SYSTEM":"UTC","FILE":"3284266","MEAN_MOTION":"15.06410746","RA_OF_ASC_NODE":"39.8032","CENTER_NAME":"EARTH","OBJECT_NAME":"STARLINK-2188","MEAN_MOTION_DDOT":"0.0000000000000","MEAN_ELEMENT_THEORY":"SGP4","GP_ID":"194681744","DECAY_DATE":null,"REF_FRAME":"TEME","MEAN_MOTION_DOT":"-0.00002196","COUNTRY_CODE":"US","OBJECT_ID":"2021-041L","CLASSIFICATION_TYPE":"U","ELEMENT_SET_NO":"999","OBJECT_TYPE":"PAYLOAD","BSTAR":"-0.00012857000000","REV_AT_EPOCH":"3863","EPOCH":"2022-01-26T11:29:37.997664","PERIOD":"95.591","ARG_OF_PERICENTER":"72.6852","APOAPSIS":"548.048","SITE":"AFETR","INCLINATION":"53.0550","ECCENTRICITY":"0.00012520","TLE_LINE2":"2 48563  53.0550  39.8032 0001252  72.6852 287.4274 15.06410746 38639","TLE_LINE1":"1 48563U 21041L   22026.47891201 -.00002196  00000-0 -12857-3 0  9994","RCS_SIZE":"LARGE","PERIAPSIS":"546.314","EPHEMERIS_TYPE":"0","SEMIMAJOR_AXIS":"6925.316","MEAN_ANOMALY":"287.4274","NORAD_CAT_ID":"48563"},{"BSTAR":"0.00010191000000","OBJECT_TYPE":"PAYLOAD","REV_AT_EPOCH":"3862","EPOCH":"2022-01-26T09:43:29.326656","PERIOD":"95.592","OBJECT_ID":"2021-041M","COUNTRY_CODE":"US","MEAN_MOTION_DOT":"0.00001237","CLASSIFICATION_TYPE":"U","ELEMENT_SET_NO":"999","GP_ID":"194681495","MEAN_ELEMENT_THEORY":"SGP4","DECAY_DATE":null,"REF_FRAME":"TEME","FILE":"3284266","MEAN_MOTION":"15.06397787","TIME_SYSTEM":"UTC","LAUNCH_DATE":"2021-05-15","OBJECT_NAME":"STARLINK-2190","MEAN_MOTION_DDOT":"0.0000000000000","RA_OF_ASC_NODE":"40.1374","CENTER_NAME":"EARTH","NORAD_CAT_ID":"48564","PERIAPSIS":"546.285","SEMIMAJOR_AXIS":"6925.355","EPHEMERIS_TYPE":"0","MEAN_ANOMALY":"289.8392","RCS_SIZE":"LARGE","TLE_LINE1":"1 48564U 21041M   22026.40520054  .00001237  00000-0  10191-3 0  9995","APOAPSIS":"548.155","INCLINATION":"53.0547","SITE":"AFETR","ARG_OF_PERICENTER":"70.2742","ECCENTRICITY":"0.00013500","TLE_LINE2":"2 48564  53.0547  40.1374 0001350  70.2742 289.8392 15.06397787 38626"},{"RCS_SIZE":"LARGE","TLE_LINE1":"1 48565U 21041N   22026.53419215 -.00003100  00000-0 -18919-3 0  9995","APOAPSIS":"547.950","INCLINATION":"53.0544","SITE":"AFETR","ARG_OF_PERICENTER":"67.0170","ECCENTRICITY":"0.00011770","TLE_LINE2":"2 48565  53.0544  39.5596 0001177  67.0170 293.0943 15.06425667 38648","NORAD_CAT_ID":"48565","PERIAPSIS":"546.320","SEMIMAJOR_AXIS":"6925.270","EPHEMERIS_TYPE":"0","MEAN_ANOMALY":"293.0943","GP_ID":"194682746","MEAN_ELEMENT_THEORY":"SGP4","DECAY_DATE":null,"REF_FRAME":"TEME","MEAN_MOTION":"15.06425667","FILE":"3284266","TIME_SYSTEM":"UTC","LAUNCH_DATE":"2021-05-15","MEAN_MOTION_DDOT":"0.0000000000000","OBJECT_NAME":"STARLINK-2191","RA_OF_ASC_NODE":"39.5596","CENTER_NAME":"EARTH","BSTAR":"-0.00018919000000","OBJECT_TYPE":"PAYLOAD","REV_AT_EPOCH":"3864","PERIOD":"95.591","EPOCH":"2022-01-26T12:49:14.201760","OBJECT_ID":"2021-041N","MEAN_MOTION_DOT":"-0.00003100","COUNTRY_CODE":"US","ELEMENT_SET_NO":"999","CLASSIFICATION_TYPE":"U"},{"NORAD_CAT_ID":"48566","PERIAPSIS":"546.124","SEMIMAJOR_AXIS":"6925.305","EPHEMERIS_TYPE":"0","MEAN_ANOMALY":"286.9287","RCS_SIZE":"LARGE","TLE_LINE1":"1 48566U 21041P   22026.49179576  .00001289  00000-0  10536-3 0  9995","APOAPSIS":"548.217","SITE":"AFETR","INCLINATION":"53.0556","ARG_OF_PERICENTER":"73.1867","ECCENTRICITY":"0.00015110","TLE_LINE2":"2 48566  53.0556  49.7425 0001511  73.1867 286.9287 15.06414157 38496","BSTAR":"0.00010536000000","OBJECT_TYPE":"PAYLOAD","REV_AT_EPOCH":"3849","PERIOD":"95.591","EPOCH":"2022-01-26T11:48:11.153664","OBJECT_ID":"2021-041P","COUNTRY_CODE":"US","MEAN_MOTION_DOT":"0.00001289","CLASSIFICATION_TYPE":"U","ELEMENT_SET_NO":"999","GP_ID":"194682996","MEAN_ELEMENT_THEORY":"SGP4","REF_FRAME":"TEME","DECAY_DATE":null,"MEAN_MOTION":"15.06414157","FILE":"3284266","TIME_SYSTEM":"UTC","LAUNCH_DATE":"2021-05-15","MEAN_MOTION_DDOT":"0.0000000000000","OBJECT_NAME":"STARLINK-2214","RA_OF_ASC_NODE":"49.7425","CENTER_NAME":"EARTH"},{"OBJECT_NAME":"STARLINK-2215","MEAN_MOTION_DDOT":"0.0000000000000","CENTER_NAME":"EARTH","RA_OF_ASC_NODE":"49.9731","MEAN_MOTION":"15.06397421","FILE":"3284266","TIME_SYSTEM":"UTC","LAUNCH_DATE":"2021-05-15","REF_FRAME":"TEME","DECAY_DATE":null,"GP_ID":"194681245","MEAN_ELEMENT_THEORY":"SGP4","ELEMENT_SET_NO":"999","CLASSIFICATION_TYPE":"U","OBJECT_ID":"2021-041Q","MEAN_MOTION_DOT":"0.00001042","COUNTRY_CODE":"US","PERIOD":"95.592","EPOCH":"2022-01-26T10:29:56.137920","REV_AT_EPOCH":"3848","BSTAR":"0.00008883900000","OBJECT_TYPE":"PAYLOAD","TLE_LINE2":"2 48567  53.0554  49.9731 0001310  74.6225 285.4908 15.06397421 38485","ECCENTRICITY":"0.00013100","INCLINATION":"53.0554","SITE":"AFETR","APOAPSIS":"548.129","ARG_OF_PERICENTER":"74.6225","RCS_SIZE":"LARGE","TLE_LINE1":"1 48567U 21041Q   22026.43745530  .00001042  00000-0  88839-4 0  9998","MEAN_ANOMALY":"285.4908","SEMIMAJOR_AXIS":"6925.356","EPHEMERIS_TYPE":"0","PERIAPSIS":"546.314","NORAD_CAT_ID":"48567"},{"EPHEMERIS_TYPE":"0","SEMIMAJOR_AXIS":"6925.324","MEAN_ANOMALY":"279.4567","PERIAPSIS":"546.257","NORAD_CAT_ID":"48568","ECCENTRICITY":"0.00013460","TLE_LINE2":"2 48568  53.0564  39.9207 0001346  80.6574 279.4567 15.06407910 38622","APOAPSIS":"548.121","INCLINATION":"53.0564","SITE":"AFETR","ARG_OF_PERICENTER":"80.6574","RCS_SIZE":"LARGE","TLE_LINE1":"1 48568U 21041R   22026.44944136  .00000984  00000-0  84898-4 0  9998","ELEMENT_SET_NO":"999","CLASSIFICATION_TYPE":"U","OBJECT_ID":"2021-041R","MEAN_MOTION_DOT":"0.00000984","COUNTRY_CODE":"US","REV_AT_EPOCH":"3862","PERIOD":"95.592","EPOCH":"2022-01-26T10:47:11.733504","BSTAR":"0.00008489800000","OBJECT_TYPE":"PAYLOAD","MEAN_MOTION_DDOT":"0.0000000000000","OBJECT_NAME":"STARLINK-2217","RA_OF_ASC_NODE":"39.9207","CENTER_NAME":"EARTH","MEAN_MOTION":"15.06407910","FILE":"3284266","TIME_SYSTEM":"UTC","LAUNCH_DATE":"2021-05-15","REF_FRAME":"TEME","DECAY_DATE":null,"GP_ID":"194681995","MEAN_ELEMENT_THEORY":"SGP4"},{"OBJECT_TYPE":"PAYLOAD","BSTAR":"0.00019380000000","REV_AT_EPOCH":"3863","EPOCH":"2022-01-26T11:24:19.816704","PERIOD":"95.592","OBJECT_ID":"2021-041S","MEAN_MOTION_DOT":"0.00002607","COUNTRY_CODE":"US","ELEMENT_SET_NO":"999","CLASSIFICATION_TYPE":"U","GP_ID":"194682247","MEAN_ELEMENT_THEORY":"SGP4","REF_FRAME":"TEME","DECAY_DATE":null,"MEAN_MOTION":"15.06407109","FILE":"3284266","TIME_SYSTEM":"UTC","LAUNCH_DATE":"2021-05-15","MEAN_MOTION_DDOT":"0.0000000000000","OBJECT_NAME":"STARLINK-2219","RA_OF_ASC_NODE":"39.8220","CENTER_NAME":"EARTH","NORAD_CAT_ID":"48569","PERIAPSIS":"546.116","EPHEMERIS_TYPE":"0","SEMIMAJOR_AXIS":"6925.327","MEAN_ANOMALY":"290.5729","RCS_SIZE":"LARGE","TLE_LINE1":"1 48569U 21041S   22026.47522936  .00002607  00000-0  19380-3 0  9999","APOAPSIS":"548.268","SITE":"AFETR","INCLINATION":"53.0548","ARG_OF_PERICENTER":"69.5427","ECCENTRICITY":"0.00015540","TLE_LINE2":"2 48569  53.0548  39.8220 0001554  69.5427 290.5729 15.06407109 38638"},{"PERIAPSIS":"546.192","MEAN_ANOMALY":"288.4486","EPHEMERIS_TYPE":"0","SEMIMAJOR_AXIS":"6925.331","NORAD_CAT_ID":"48570","INCLINATION":"53.0548","SITE":"AFETR","APOAPSIS":"548.200","ARG_OF_PERICENTER":"71.6660","TLE_LINE2":"2 48570  53.0548  49.8583 0001450  71.6660 288.4486 15.06405741 38480","ECCENTRICITY":"0.00014500","RCS_SIZE":"LARGE","TLE_LINE1":"1 48570U 21041T   22026.46324551  .00002216  00000-0  16761-3 0  9999","OBJECT_ID":"2021-041T","MEAN_MOTION_DOT":"0.00002216","COUNTRY_CODE":"US","ELEMENT_SET_NO":"999","CLASSIFICATION_TYPE":"U","BSTAR":"0.00016761000000","OBJECT_TYPE":"PAYLOAD","PERIOD":"95.592","EPOCH":"2022-01-26T11:07:04.412064","REV_AT_EPOCH":"3848","MEAN_MOTION":"15.06405741","FILE":"3284266","TIME_SYSTEM":"UTC","LAUNCH_DATE":"2021-05-15","OBJECT_NAME":"STARLINK-2220","MEAN_MOTION_DDOT":"0.0000000000000","CENTER_NAME":"EARTH","RA_OF_ASC_NODE":"49.8583","GP_ID":"194682497","MEAN_ELEMENT_THEORY":"SGP4","DECAY_DATE":null,"REF_FRAME":"TEME"},{"ELEMENT_SET_NO":"999","CLASSIFICATION_TYPE":"U","OBJECT_ID":"2021-041U","COUNTRY_CODE":"US","MEAN_MOTION_DOT":"0.00001403","REV_AT_EPOCH":"3850","PERIOD":"95.592","EPOCH":"2022-01-26T12:53:14.490528","OBJECT_TYPE":"PAYLOAD","BSTAR":"0.00011304000000","MEAN_MOTION_DDOT":"0.0000000000000","OBJECT_NAME":"STARLINK-2221","RA_OF_ASC_NODE":"49.5471","CENTER_NAME":"EARTH","MEAN_MOTION":"15.06403561","FILE":"3284266","TIME_SYSTEM":"UTC","LAUNCH_DATE":"2021-05-15","REF_FRAME":"TEME","DECAY_DATE":null,"GP_ID":"194681745","MEAN_ELEMENT_THEORY":"SGP4","EPHEMERIS_TYPE":"0","SEMIMAJOR_AXIS":"6925.338","MEAN_ANOMALY":"300.2601","PERIAPSIS":"546.271","NORAD_CAT_ID":"48571","ECCENTRICITY":"0.00013450","TLE_LINE2":"2 48571  53.0543  49.5471 0001345  59.8521 300.2601 15.06403561 38509","APOAPSIS":"548.134","SITE":"AFETR","INCLINATION":"53.0543","ARG_OF_PERICENTER":"59.8521","RCS_SIZE":"LARGE","TLE_LINE1":"1 48571U 21041U   22026.53697327  .00001403  00000-0  11304-3 0  9997"},{"REF_FRAME":"TEME","DECAY_DATE":null,"GP_ID":"194681496","MEAN_ELEMENT_THEORY":"SGP4","OBJECT_NAME":"STARLINK-2222","MEAN_MOTION_DDOT":"0.0000000000000","CENTER_NAME":"EARTH","RA_OF_ASC_NODE":"49.5470","MEAN_MOTION":"15.06404648","FILE":"3284266","TIME_SYSTEM":"UTC","LAUNCH_DATE":"2021-05-15","EPOCH":"2022-01-26T12:47:55.915584","PERIOD":"95.592","REV_AT_EPOCH":"3850","BSTAR":"0.00007914000000","OBJECT_TYPE":"PAYLOAD","CLASSIFICATION_TYPE":"U","ELEMENT_SET_NO":"999","OBJECT_ID":"2021-041V","MEAN_MOTION_DOT":"0.00000898","COUNTRY_CODE":"US","RCS_SIZE":"LARGE","TLE_LINE1":"1 48572U 21041V   22026.53328606  .00000898  00000-0  79140-4 0  9999","TLE_LINE2":"2 48572  53.0553  49.5470 0001434  76.4090 283.7059 15.06404648 38504","ECCENTRICITY":"0.00014340","INCLINATION":"53.0553","SITE":"AFETR","APOAPSIS":"548.192","ARG_OF_PERICENTER":"76.4090","NORAD_CAT_ID":"48572","MEAN_ANOMALY":"283.7059","EPHEMERIS_TYPE":"0","SEMIMAJOR_AXIS":"6925.334","PERIAPSIS":"546.206"}];
